ORBCOMM FM115 [+]       
1 41186U 15081H   24091.96085570  .00001299  00000+0  30039-3 0  9999
2 41186  46.9995 339.5810 0000949 227.4855 132.5951 14.60512609443087
ORBCOMM FM108 [+]       
1 41187U 15081J   24091.55335226  .00001622  00000+0  39931-3 0  9991
2 41187  47.0052  34.5566 0001994  65.5913 294.5180 14.56413055442230
ORBCOMM FM117 [+]       
1 41188U 15081K   24091.79360944  .00001642  00000+0  40368-3 0  9991
2 41188  47.0014  32.3323 0002362  83.2523 276.8630 14.56419060442314
ORBCOMM FM116 [+]       
1 41189U 15081L   24091.92011670  .00001108  00000+0  28453-3 0  9994
2 41189  47.0009 121.5543 0002389 218.8892 141.1821 14.56440560441143
